[{"OBJECT_NAME":"STARLINK-3925","OBJECT_ID":"2022-049AZ","EPOCH":"2026-03-09T22:11:12.286464","MEAN_MOTION":15.08844188,"ECCENTRICITY":0.00015747,"INCLINATION":53.22,"RA_OF_ASC_NODE":38.0652,"ARG_OF_PERICENTER":95.9411,"MEAN_ANOMALY":264.1761,"EPHEMERIS_TYPE":0,"CLASSIFICATION_TYPE":"U","NORAD_CAT_ID":52498,"ELEMENT_SET_NO":999,"REV_AT_EPOCH":21256,"BSTAR":-6.3147914e-5,"MEAN_MOTION_DOT":-1.293e-5,"MEAN_MOTION_DDOT":0},{"OBJECT_NAME":"OPS 8781","OBJECT_ID":"1977-112A","EPOCH":"2026-03-09T22:31:12.770400","MEAN_MOTION":14.07197929,"ECCENTRICITY":0.04784864,"INCLINATION":63.3307,"RA_OF_ASC_NODE":25.3716,"ARG_OF_PERICENTER":160.9136,"MEAN_ANOMALY":201.0559,"EPHEMERIS_TYPE":0,"CLASSIFICATION_TYPE":"U","NORAD_CAT_ID":10502,"ELEMENT_SET_NO":999,"REV_AT_EPOCH":9410,"BSTAR":0.00010438092,"MEAN_MOTION_DOT":3.53e-6,"MEAN_MOTION_DDOT":0}]
